NORAD_CAT_ID,OBJECT_NAME,OBJECT_TYPE,EPOCH,MEAN_MOTION,ECCENTRICITY,INCLINATION,RA_OF_ASC_NODE,ARG_OF_PERICENTER,MEAN_ANOMALY,BSTAR,MEAN_MOTION_DOT,MEAN_MOTION_DDOT,TLE_LINE0,TLE_LINE1,TLE_LINE2,SEMIMAJOR_AXIS,PERIOD,APOGEE,PERIGEE,DECAYED
53618.0,STARLINK-4604,PAYLOAD,2022-11-30 22:00:00,15.08868807,0.0001857,53.2155,197.5761,51.1638,36.149,-0.0047648,-0.00075388,0.0,0 STARLINK-4604,1 53618U 22104AG  22334.91667824 -.00075388  00000-0 -47648-2 0  9993,2 53618  53.2155 197.5761 0001857  51.1638  36.1490 15.08868807  1305,6917.792,95.436,540.942,538.373,0.0
53618.0,STARLINK-4604,PAYLOAD,2022-12-01 06:00:00,15.08870967,0.0001875,53.2146,196.0792,46.8657,52.0409,-0.0047388,-0.00074987,0.0,0 STARLINK-4604,1 53618U 22104AG  22335.25001157 -.00074987  00000-0 -47388-2 0  9997,2 53618  53.2146 196.0792 0001875  46.8657  52.0409 15.08870967 14733,6917.786,95.436,540.948,538.354,0.0
53618.0,STARLINK-4604,PAYLOAD,2022-12-01 14:00:01,15.08818002,0.0001744,53.2147,194.5817,52.677,57.8354,0.0021478,0.00034039,0.0,0 STARLINK-4604,1 53618U 22104AG  22335.58334491  .00034039  00000-0  21478-2 0  9997,2 53618  53.2147 194.5817 0001744  52.6770  57.8354 15.08818002  1304,6917.948,95.439,541.019,538.606,0.0
53618.0,STARLINK-4604,PAYLOAD,2022-12-01 22:00:00,15.08833466,0.0001921,53.2147,193.0871,47.8926,74.2018,-0.00010057,-1.888e-05,0.0,0 STARLINK-4604,1 53618U 22104AG  22335.91667824 -.00001888  00000-0 -10057-3 0  9993,2 53618  53.2147 193.0871 0001921  47.8926  74.2018 15.08833466 14837,6917.9,95.438,541.094,538.436,0.0
53618.0,STARLINK-4604,PAYLOAD,2022-12-02 14:00:01,15.08856724,0.0001802,53.216,190.0918,54.0183,91.2557,-0.0030754,-0.00048924,0.0,0 STARLINK-4604,1 53618U 22104AG  22336.58334491 -.00048924  00000-0 -30754-2 0  9995,2 53618  53.2160 190.0918 0001802  54.0183  91.2557 15.08856724  1301,6917.829000000002,95.436,540.941,538.448,0.0
53618.0,STARLINK-4604,PAYLOAD,2022-12-02 22:00:00,15.0881592,0.0002046,53.2147,188.598,51.4878,105.3861,7.9278e-05,9.73e-06,0.0,0 STARLINK-4604,1 53618U 22104AG  22336.91667824  .00000973  00000-0  79278-4 0  9997,2 53618  53.2147 188.5980 0002046  51.4878 105.3861 15.08815920  1308,6917.954000000002,95.439,541.234,538.404,0.0
53618.0,STARLINK-4604,PAYLOAD,2022-12-03 08:00:01,15.08826827,0.0001911,53.2146,186.7262,54.217,207.1212,-0.00041521,-6.888e-05,0.0,0 STARLINK-4604,1 53618U 22104AG  22337.33334491 -.00006888  00000-0 -41521-3 0  9997,2 53618  53.2146 186.7262 0001911  54.2170 207.1212 15.08826827 15052,6917.920999999999,95.438,541.1080000000002,538.464,0.0
53618.0,STARLINK-4604,PAYLOAD,2022-12-03 14:00:01,15.08825313,0.0001903,53.2146,185.6037,58.8801,121.1368,0.0010782,0.00016906,0.0,0 STARLINK-4604,1 53618U 22104AG  22337.58334491  .00016906  00000-0  10782-2 0  9998,2 53618  53.2146 185.6037 0001903  58.8801 121.1368 15.08825313  1301,6917.925,95.438,541.107,538.474,0.0
53618.0,STARLINK-4604,PAYLOAD,2022-12-03 22:00:00,15.08823101,0.0002058,53.2143,184.109,53.1063,138.4979,0.00052545,8.081e-05,0.0,0 STARLINK-4604,1 53618U 22104AG  22337.91667824  .00008081  00000-0  52545-3 0  9993,2 53618  53.2143 184.1090 0002058  53.1063 138.4979 15.08823101  1303,6917.932,95.439,541.221,538.373,0.0
53618.0,STARLINK-4604,PAYLOAD,2022-12-04 06:00:00,15.08848591,0.0001968,53.2138,182.6116,55.2163,147.9642,-0.0020221,-0.00032334,0.0,0 STARLINK-4604,1 53618U 22104AG  22338.25001157 -.00032334  00000-0 -20221-2 0  9997,2 53618  53.2138 182.6116 0001968  55.2163 147.9642 15.08848591 15185,6917.854,95.437,541.081,538.3580000000002,0.0
53618.0,STARLINK-4604,PAYLOAD,2022-12-04 14:00:01,15.08837291,0.0001934,53.2139,181.1147,61.1276,153.6403,0.00058034,8.959e-05,0.0,0 STARLINK-4604,1 53618U 22104AG  22338.58334491  .00008959  00000-0  58034-3 0  9991,2 53618  53.2139 181.1147 0001934  61.1276 153.6403 15.08837291  1301,6917.889,95.438,541.092,538.4159999999998,0.0
53618.0,STARLINK-4604,PAYLOAD,2022-12-04 22:00:00,15.08827759,0.0002093,53.2135,179.62,54.9739,171.3943,0.0010314,0.00016159,0.0,0 STARLINK-4604,1 53618U 22104AG  22338.91667824  .00016159  00000-0  10314-2 0  9996,2 53618  53.2135 179.6200 0002093  54.9739 171.3943 15.08827759  1304,6917.918000000002,95.438,541.231,538.335,0.0
53618.0,STARLINK-4604,PAYLOAD,2022-12-05 12:00:00,15.08834004,0.0001963,53.2142,176.9991,61.7071,94.9553,0.002105,0.00033367,0.0,0 STARLINK-4604,1 53618U 22104AG  22339.50001157  .00033367  00000-0  21050-2 0  9992,2 53618  53.2142 176.9991 0001963  61.7071  94.9553 15.08834004  1307,6917.899,95.438,541.122,538.406,0.0
53618.0,STARLINK-4604,PAYLOAD,2022-12-05 19:15:27,15.08840004,0.0002047,53.2163,175.6416,57.4238,302.6952,7.4645e-05,9e-06,0.0,0 STARLINK-4604,1 53618U 22104AG  22339.80240481  .00000900  00000-0  74645-4 0  9997,2 53618  53.2163 175.6416 0002047  57.4238 302.6952 15.08840004 15426,6917.88,95.438,541.161,538.3290000000002,0.0
53618.0,STARLINK-4604,PAYLOAD,2022-12-05 20:50:50,15.08842815,0.0002042,53.2168,175.3443,56.0291,304.0895,5.898800000000001e-05,6.51e-06,0.0,0 STARLINK-4604,1 53618U 22104AG  22339.86864357  .00000651  00000-0  58988-4 0  9992,2 53618  53.2168 175.3443 0002042  56.0291 304.0895 15.08842815 15432,6917.871999999999,95.437,541.149,538.3240000000002,0.0
53618.0,STARLINK-4604,PAYLOAD,2022-12-06 12:44:42,15.08836755,0.0001886,53.2174,172.3701,55.0897,305.0272,1.6319e-05,-2.8e-07,0.0,0 STARLINK-4604,1 53618U 22104AG  22340.53104727 -.00000028  00000-0  16319-4 0  9997,2 53618  53.2174 172.3701 0001886  55.0897 305.0272 15.08836755 15536,6917.89,95.438,541.06,538.451,0.0
53618.0,STARLINK-4604,PAYLOAD,2022-12-06 19:06:15,15.0883262,0.0001757,53.2181,171.1798,55.5916,304.5242,-3.1796e-05,-7.94e-06,0.0,0 STARLINK-4604,1 53618U 22104AG  22340.79601182 -.00000794  00000-0 -31796-4 0  9999,2 53618  53.2181 171.1798 0001757  55.5916 304.5242 15.08832620 15573,6917.903,95.438,540.9830000000002,538.552,0.0
53618.0,STARLINK-4604,PAYLOAD,2022-12-07 18:57:02,15.0885889,0.0002021,53.2184,166.7231,29.1471,330.9633,-0.0006542,-0.0001069,0.0,0 STARLINK-4604,1 53618U 22104AG  22341.78961529 -.00010690  00000-0 -65420-3 0  9999,2 53618  53.2184 166.7231 0002021  29.1471 330.9633 15.08858890 15727,6917.823,95.436,541.086,538.29,0.0
53618.0,STARLINK-4604,PAYLOAD,2022-12-08 12:26:17,15.08835293,0.0001944,53.2178,163.453,42.63800000000001,317.4762,-5.9045e-05,-1.228e-05,0.0,0 STARLINK-4604,1 53618U 22104AG  22342.51825244 -.00001228  00000-0 -59045-4 0  9998,2 53618  53.2178 163.4530 0001944  42.6380 317.4762 15.08835293 15835,6917.895,95.438,541.105,538.415,0.0
53618.0,STARLINK-4604,PAYLOAD,2022-12-08 18:47:50,15.08818341,0.0001909,53.2176,162.264,334.9026,25.1873,-0.00020828,-3.599e-05,0.0,0 STARLINK-4604,1 53618U 22104AG  22342.78322485 -.00003599  00000-0 -20828-3 0  9995,2 53618  53.2176 162.2640 0001909 334.9026  25.1873 15.08818341 15872,6917.946999999999,95.439,541.132,538.491,0.0
53618.0,STARLINK-4604,PAYLOAD,2022-12-08 21:58:35,15.08829728,0.0002388,53.2175,161.671,51.43899999999999,308.6816,-5.819e-06,-3.81e-06,0.0,0 STARLINK-4604,1 53618U 22104AG  22342.91569440 -.00000381  00000-0 -58190-5 0  9995,2 53618  53.2175 161.6710 0002388  51.4390 308.6816 15.08829728 15898,6917.9119999999975,95.438,541.429,538.125,0.0
53618.0,STARLINK-4604,PAYLOAD,2022-12-09 12:17:01,15.08890736,6.96e-05,53.2174,158.9941,26.6729,333.4299,-0.000574,-9.424e-05,0.0,0 STARLINK-4604,1 53618U 22104AG  22343.51182334 -.00009424  00000-0 -57400-3 0  9993,2 53618  53.2174 158.9941 0000696  26.6729 333.4299 15.08890736 15980,6917.725,95.434,540.072,539.109,0.0
53618.0,STARLINK-4604,PAYLOAD,2022-12-09 18:38:37,15.08759784,9.19e-05,53.218,157.8065,325.1716,34.9215,0.00090549,0.00014121,0.0,0 STARLINK-4604,1 53618U 22104AG  22343.77682666  .00014121  00000-0  90549-3 0  9993,2 53618  53.2180 157.8065 0000919 325.1716  34.9215 15.08759784 16027,6918.126,95.443,540.626,539.355,0.0
53618.0,STARLINK-4604,PAYLOAD,2022-12-10 12:07:51,15.08768614,8.98e-05,53.2184,154.534,8.6935,351.4073,0.00086585,0.00013492,0.0,0 STARLINK-4604,1 53618U 22104AG  22344.50545627  .00013492  00000-0  86585-3 0  9995,2 53618  53.2184 154.5340 0000898   8.6935 351.4073 15.08768614 16136,6918.099,95.442,540.585,539.342,0.0
53618.0,STARLINK-4604,PAYLOAD,2022-12-10 18:29:23,15.08842373,0.0001893,53.218,153.3429,53.7733,306.3434,-1.429e-06,-3.11e-06,0.0,0 STARLINK-4604,1 53618U 22104AG  22344.77040765 -.00000311  00000-0 -14290-5 0  9991,2 53618  53.2180 153.3429 0001893  53.7733 306.3434 15.08842373 16179,6917.873000000001,95.437,541.048,538.429,0.0
53618.0,STARLINK-4604,PAYLOAD,2022-12-11 11:58:37,15.0884323,0.0001766,53.2172,150.0689,38.5595,321.5523,7.5898e-05,9.2e-06,0.0,0 STARLINK-4604,1 53618U 22104AG  22345.49904091  .00000920  00000-0  75898-4 0  9996,2 53618  53.2172 150.0689 0001766  38.5595 321.5523 15.08843230 16281,6917.871,95.437,540.957,538.514,0.0
53618.0,STARLINK-4604,PAYLOAD,2022-12-11 19:55:33,15.0883454,0.0001785,53.2176,148.5823,48.2999,311.8145,1.5112e-05,-4.8e-07,0.0,0 STARLINK-4604,1 53618U 22104AG  22345.83024814 -.00000048  00000-0  15112-4 0  9995,2 53618  53.2176 148.5823 0001785  48.2999 311.8145 15.08834540 16336,6917.897,95.438,540.997,538.5269999999998,0.0
53618.0,STARLINK-4604,PAYLOAD,2022-12-11 21:30:56,15.08833986,0.0001794,53.2176,148.2852,47.7368,312.3777,1.181e-05,-1e-06,0.0,0 STARLINK-4604,1 53618U 22104AG  22345.89648889 -.00000100  00000-0  11810-4 0  9995,2 53618  53.2176 148.2852 0001794  47.7368 312.3777 15.08833986 16340,6917.899,95.438,541.005,538.523,0.0
53618.0,STARLINK-4604,PAYLOAD,2022-12-12 11:49:24,15.08840315,0.0001819,53.2178,145.609,49.3229,310.7921,-1.9033e-05,-5.91e-06,0.0,0 STARLINK-4604,1 53618U 22104AG  22346.49264691 -.00000591  00000-0 -19033-4 0  9997,2 53618  53.2178 145.6090 0001819  49.3229 310.7921 15.08840315 16436,6917.879,95.438,541.003,538.486,0.0
